[{"OBJECT_NAME":"TIANQI-30","OBJECT_ID":"2024-170B","EPOCH":"2026-03-09T21:12:35.925696","MEAN_MOTION":13.99108215,"ECCENTRICITY":0.00073562,"INCLINATION":44.8573,"RA_OF_ASC_NODE":219.7467,"ARG_OF_PERICENTER":348.864,"MEAN_ANOMALY":11.2027,"EPHEMERIS_TYPE":0,"CLASSIFICATION_TYPE":"U","NORAD_CAT_ID":61196,"ELEMENT_SET_NO":999,"REV_AT_EPOCH":7514,"BSTAR":0.00015101547,"MEAN_MOTION_DOT":9.2e-7,"MEAN_MOTION_DDOT":0},{"OBJECT_NAME":"DELTA 1 DEB","OBJECT_ID":"1978-026AL","EPOCH":"2026-03-09T20:16:21.806112","MEAN_MOTION":13.93990738,"ECCENTRICITY":0.00600067,"INCLINATION":98.9354,"RA_OF_ASC_NODE":18.1923,"ARG_OF_PERICENTER":313.8766,"MEAN_ANOMALY":102.021,"EPHEMERIS_TYPE":0,"CLASSIFICATION_TYPE":"U","NORAD_CAT_ID":12195,"ELEMENT_SET_NO":999,"REV_AT_EPOCH":28953,"BSTAR":0.00023629773,"MEAN_MOTION_DOT":2.74e-6,"MEAN_MOTION_DDOT":0}]
